ASTROCAST-0403          
1 55111U 23001DG  26068.82333059  .00013959  00000+0  51317-3 0  9990
2 55111  97.5604 161.3228 0004771 338.0704  22.0330 15.28004949129377
STARLINK-34077          
1 64009U 25101R   26068.13798973  .00033147  00000+0  12078-2 0  9994
2 64009  43.0039   0.8363 0001216 287.6209  72.4509 15.27604249 46977
